ONEWEB-0349             
1 49281U 21090C   24359.76366525  .00000021  00000+0  20668-4 0  9997
2 49281  87.9249  21.7697 0001784  89.3101 270.8237 13.20771772158627
ONEWEB-0353             
1 49282U 21090D   24359.84007250 -.00000202  00000+0 -57903-3 0  9998
2 49282  87.8997  36.9570 0001569  91.5877 268.5432 13.14501721156729
ONEWEB-0356             
1 49283U 21090E   24359.76208369  .00000069  00000+0  13656-3 0  9990
2 49283  87.9248  21.7627 0002454  74.8898 285.2507 13.20770373158624
ONEWEB-0358             
1 49284U 21090F   24359.79206538  .00000027  00000+0  33330-4 0  9996
2 49284  87.9251  21.7448 0002100  91.1071 269.0302 13.20769498159353
ONEWEB-0359             
1 49285U 21090G   24359.78891262  .00000083  00000+0  17178-3 0  9993
2 49285  87.9247  21.7607 0002152 102.4072 257.7302 13.20770093159335
ONEWEB-0360             
1 49286U 21090H   24359.62792839  .00000065  00000+0  12782-3 0  9993
2 49286  87.9247  21.7981 0001957  98.0827 262.0528 13.20770117158628
ONEWEB-0361             
1 49287U 21090J   24359.83625957  .00000129  00000+0  28422-3 0  9992
2 49287  87.9249  21.7518 0001867  88.9674 271.1673 13.20770483159107
ONEWEB-0362             
1 49288U 21090K   24359.89237479  .00000018  00000+0  13073-4 0  9991
2 49288  87.9170  52.2191 0001766 108.5213 251.6112 13.19724045155785
